{"type": "FeatureCollection", "features": [{"type": "Feature", "properties": {"name": "Guelph", "osm_type": "relation", "osm_id": 7486148}, "geometry": {"type": "Polygon", "coordinates": [[[-80.3269091, 43.5345166], [-80.3258049, 43.5337205], [-80.3241193, 43.5325052], [-80.3233662, 43.5319622], [-80.3232439, 43.531874], [-80.3197164, 43.5292739], [-80.3195186, 43.5291281], [-80.3194118, 43.5290515], [-80.3191635, 43.5288735], [-80.3178813, 43.527933], [-80.314117, 43.5251717], [-80.3139491, 43.5250406], [-80.311084, 43.5228755], [-80.3108016, 43.5226622], [-80.3098193, 43.5219198], [-80.3094773, 43.5216614], [-80.309268, 43.5215032], [-80.3071932, 43.5200306], [-80.3070198, 43.5199075], [-80.2994159, 43.5228802], [-80.2976179, 43.5236354], [-80.2972052, 43.5233404], [-80.2920338, 43.5196449], [-80.2918937, 43.5195436], [-80.2916995, 43.5194048], [-80.291076, 43.5189943], [-80.2898448, 43.5184648], [-80.2891022, 43.5182833], [-80.2792336, 43.5112164], [-80.2781283, 43.5120229], [-80.2772423, 43.5114049], [-80.2744739, 43.5134346], [-80.2728048, 43.5122997], [-80.2711949, 43.5163892], [-80.2694607, 43.5166185], [-80.2695715, 43.5171399], [-80.2688875, 43.5175345], [-80.2689492, 43.5178098], [-80.2683804, 43.5178862], [-80.2682473, 43.5179942], [-80.2684897, 43.5189958], [-80.2674549, 43.5191249], [-80.2675565, 43.5197147], [-80.2644365, 43.5219803], [-80.2642867, 43.521876], [-80.262903, 43.5229108], [-80.2632656, 43.5223995], [-80.2634841, 43.5221868], [-80.2637151, 43.5220581], [-80.2641642, 43.5217895], [-80.2643635, 43.5215517], [-80.2643645, 43.5210434], [-80.2642706, 43.5203627], [-80.2639756, 43.5199017], [-80.2640182, 43.5193819], [-80.264072, 43.5191084], [-80.2642491, 43.5182076], [-80.2642196, 43.5175346], [-80.263938, 43.5162781], [-80.2638415, 43.5160233], [-80.2634552, 43.5156615], [-80.2629134, 43.515255], [-80.2624252, 43.5149982], [-80.2616823, 43.5147357], [-80.2613738, 43.514545], [-80.2611941, 43.5142688], [-80.2610949, 43.5138798], [-80.2609286, 43.5135336], [-80.2601936, 43.512845], [-80.259735, 43.5125376], [-80.2595026, 43.512119], [-80.2593889, 43.5119575], [-80.2590938, 43.5116168], [-80.2589763, 43.5114738], [-80.2588631, 43.5113745], [-80.2587899, 43.5113151], [-80.258684, 43.5112261], [-80.2585723, 43.511145], [-80.258423, 43.5110188], [-80.2582795, 43.5108898], [-80.2582016, 43.5108242], [-80.2580893, 43.5107429], [-80.2579641, 43.5106431], [-80.2578742, 43.510555], [-80.2577447, 43.5104398], [-80.2575849, 43.5103353], [-80.2574542, 43.5102339], [-80.2573814, 43.5101711], [-80.2573087, 43.5101187], [-80.2572018, 43.510049], [-80.2571282, 43.5099854], [-80.2570482, 43.5099349], [-80.256998, 43.5098999], [-80.2569616, 43.5098588], [-80.2569233, 43.5098177], [-80.2569158, 43.5097825], [-80.2568954, 43.5097489], [-80.2568834, 43.5097134], [-80.2568841, 43.5096599], [-80.2568728, 43.5095709], [-80.256849, 43.5095004], [-80.2568255, 43.5093939], [-80.2567921, 43.5091011], [-80.2567089, 43.5088252], [-80.2567094, 43.5087713], [-80.2566851, 43.5087357], [-80.2566734, 43.5086906], [-80.2565629, 43.5086191], [-80.2565386, 43.5085828], [-80.2565392, 43.5085378], [-80.256515, 43.5084841], [-80.2564781, 43.508466], [-80.2564288, 43.5084571], [-80.2563425, 43.5084301], [-80.2562934, 43.5083943], [-80.2562569, 43.5083497], [-80.2562203, 43.5083134], [-80.2561474, 43.508197], [-80.2560873, 43.5080531], [-80.2560632, 43.5080086], [-80.2560144, 43.5079541], [-80.2559531, 43.5079003], [-80.2559167, 43.5078467], [-80.2558801, 43.5078103], [-80.2558435, 43.5077567], [-80.2557947, 43.5077113], [-80.2557582, 43.507657], [-80.2557089, 43.5076392], [-80.2556597, 43.5076119], [-80.255623, 43.5075846], [-80.2555862, 43.5075664], [-80.2555621, 43.5075122], [-80.2555377, 43.507476], [-80.255514, 43.5073948], [-80.2554775, 43.5073406], [-80.2554531, 43.5073134], [-80.2554168, 43.5072501], [-80.2553681, 43.5071868], [-80.2552824, 43.5071142], [-80.2552459, 43.5070689], [-80.255173, 43.5069514], [-80.255124, 43.5069151], [-80.2550874, 43.5068698], [-80.2550508, 43.5068335], [-80.2549772, 43.5067796], [-80.2549653, 43.5067435], [-80.2549665, 43.5066446], [-80.2549424, 43.5065903], [-80.254906, 43.506536], [-80.2548695, 43.5064912], [-80.2548205, 43.506446], [-80.2547965, 43.5063829], [-80.2547975, 43.5063018], [-80.254775, 43.5061311], [-80.2547759, 43.5060591], [-80.2548016, 43.5059692], [-80.2548022, 43.5059241], [-80.2548403, 43.5058523], [-80.2548536, 43.5057713], [-80.2548181, 43.5056361], [-80.2548068, 43.5055459], [-80.2548075, 43.505492], [-80.2548203, 43.5054559], [-80.2548087, 43.5053929], [-80.2548104, 43.5052573], [-80.2547867, 43.5051761], [-80.2547619, 43.5051309], [-80.2547345, 43.5050767], [-80.2546927, 43.5050057], [-80.2546742, 43.5049579], [-80.2546329, 43.5048963], [-80.2545876, 43.504816], [-80.2545596, 43.504772], [-80.2545076, 43.5046947], [-80.2543243, 43.5045332], [-80.2542636, 43.5044518], [-80.2542391, 43.5044336], [-80.2541781, 43.5043612], [-80.2541057, 43.5042167], [-80.2540937, 43.5041806], [-80.2541067, 43.5041356], [-80.2541322, 43.5040818], [-80.2541697, 43.504037], [-80.2541827, 43.503992], [-80.2541843, 43.5038569], [-80.2541372, 43.5036765], [-80.2541131, 43.5036134], [-80.2540648, 43.503523], [-80.2541049, 43.5032712], [-80.2541434, 43.5031725], [-80.2541694, 43.5030554], [-80.2541954, 43.5029655], [-80.2542089, 43.502875], [-80.2541852, 43.5027759], [-80.254186, 43.5027128], [-80.2541749, 43.5026138], [-80.2541752, 43.5025776], [-80.2541511, 43.5025326], [-80.2541275, 43.5024514], [-80.2540532, 43.5023326], [-80.2540426, 43.5023156], [-80.254018, 43.5022976], [-80.2540309, 43.5022525], [-80.254069, 43.5021719], [-80.2540941, 43.5021451], [-80.2541192, 43.5021091], [-80.2541197, 43.502073], [-80.2540723, 43.5018927], [-80.2540481, 43.5018565], [-80.2540242, 43.5017939], [-80.2540246, 43.5017578], [-80.2539893, 43.5016046], [-80.2540024, 43.5015507], [-80.2540032, 43.5014876], [-80.2539799, 43.50138], [-80.2539557, 43.5013258], [-80.2539439, 43.5012806], [-80.253871, 43.5011722], [-80.2538344, 43.5011275], [-80.2537616, 43.501019], [-80.2537374, 43.5009738], [-80.2537384, 43.5008927], [-80.2537155, 43.5007401], [-80.2537037, 43.500695], [-80.2537168, 43.500632], [-80.2536942, 43.5004608], [-80.2536952, 43.5003798], [-80.2536837, 43.5003077], [-80.2536123, 43.500082], [-80.2535881, 43.5000363], [-80.2535765, 43.4999823], [-80.2534916, 43.4998376], [-80.2534426, 43.4998007], [-80.2534183, 43.4997735], [-80.2532215, 43.4996726], [-80.2531103, 43.4996539], [-80.2529501, 43.4996163], [-80.2527903, 43.4995342], [-80.2527532, 43.499534], [-80.2526421, 43.4995151], [-80.2525924, 43.4995329], [-80.2525429, 43.4995325], [-80.2524684, 43.4995591], [-80.2524312, 43.499577], [-80.2523812, 43.4996126], [-80.2523439, 43.4996213], [-80.2523066, 43.4996391], [-80.2521088, 43.4996383], [-80.2520717, 43.4996291], [-80.2520099, 43.4996287], [-80.2519603, 43.4996464], [-80.2519104, 43.4996731], [-80.2518607, 43.4996906], [-80.2518357, 43.4997086], [-80.2517739, 43.4997087], [-80.2517246, 43.4996994], [-80.2516625, 43.499699], [-80.251564, 43.4996712], [-80.2515027, 43.4996482], [-80.2458098, 43.5005529], [-80.2444628, 43.4970774], [-80.2435255, 43.4945783], [-80.2334289, 43.4962632], [-80.2321746, 43.4929378], [-80.2320287, 43.4926181], [-80.2300188, 43.4874168], [-80.2281355, 43.4823817], [-80.2267989, 43.4783039], [-80.2260665, 43.4784321], [-80.222967, 43.4789718], [-80.2198477, 43.4795415], [-80.2154882, 43.4802992], [-80.2123284, 43.4808473], [-80.2028654, 43.4827644], [-80.2023196, 43.4827499], [-80.2015426, 43.4829298], [-80.1945449, 43.4777919], [-80.1928642, 43.4765631], [-80.1904954, 43.4747955], [-80.1903014, 43.4746639], [-80.189131, 43.4738136], [-80.1711609, 43.4872067], [-80.1711005, 43.4872486], [-80.1670746, 43.4902286], [-80.1659769, 43.491049], [-80.1605562, 43.495133], [-80.1543457, 43.499807], [-80.1533547, 43.5005419], [-80.1627102, 43.5074458], [-80.1666756, 43.5103531], [-80.1711271, 43.513598], [-80.1712518, 43.5136889], [-80.1855453, 43.5240865], [-80.2016251, 43.5358677], [-80.202294, 43.5363578], [-80.2033721, 43.5371526], [-80.202713, 43.5376525], [-80.1956091, 43.543041], [-80.1946691, 43.5437033], [-80.1945595, 43.5437726], [-80.1941849, 43.544023], [-80.1913156, 43.5461256], [-80.1907515, 43.5465452], [-80.1856237, 43.5503463], [-80.1884563, 43.552453], [-80.1877136, 43.553014], [-80.1886632, 43.5537086], [-80.1919401, 43.5560827], [-80.1921689, 43.5559134], [-80.1939088, 43.5571772], [-80.1936952, 43.5573422], [-80.1961064, 43.5590925], [-80.195221, 43.5597436], [-80.1969604, 43.5609714], [-80.1950131, 43.5624394], [-80.202875, 43.5680083], [-80.2057163, 43.5700128], [-80.2071823, 43.5710497], [-80.2072358, 43.5710875], [-80.209644, 43.572821], [-80.2125126, 43.5748858], [-80.2149756, 43.5766874], [-80.2204457, 43.5806568], [-80.2205395, 43.5807248], [-80.2250573, 43.5839619], [-80.2253417, 43.5837605], [-80.2286405, 43.5814246], [-80.2287374, 43.5813593], [-80.233298, 43.5846453], [-80.244093, 43.5767572], [-80.2462593, 43.5782822], [-80.2463305, 43.5783299], [-80.246584, 43.5784997], [-80.2494914, 43.5806209], [-80.2499434, 43.5809506], [-80.2502052, 43.5811416], [-80.2509484, 43.581683], [-80.2524598, 43.5827864], [-80.2525225, 43.5828321], [-80.2526736, 43.5829415], [-80.2566047, 43.5857872], [-80.2616822, 43.5894707], [-80.2639965, 43.5911449], [-80.2642904, 43.5913575], [-80.2647113, 43.5916621], [-80.2661153, 43.5926777], [-80.2682261, 43.5941677], [-80.2684885, 43.594353], [-80.2688034, 43.5941645], [-80.2688656, 43.5941469], [-80.2689278, 43.5941202], [-80.2689903, 43.5940846], [-80.2690402, 43.5940489], [-80.2690778, 43.5940131], [-80.2691155, 43.5939684], [-80.269178, 43.5939237], [-80.2692899, 43.5938883], [-80.2694391, 43.5938534], [-80.2695508, 43.5938361], [-80.2695757, 43.5938182], [-80.2695638, 43.5937821], [-80.2695395, 43.593737], [-80.2695401, 43.593692], [-80.2695654, 43.593638], [-80.2696409, 43.5935486], [-80.2697035, 43.5935039], [-80.2697915, 43.5933964], [-80.2698791, 43.5933158], [-80.269917, 43.5932622], [-80.269942, 43.5932352], [-80.2700793, 43.593155], [-80.2702038, 43.5930929], [-80.2702916, 43.5930124], [-80.2703416, 43.5929767], [-80.2703915, 43.59295], [-80.270454, 43.5929055], [-80.2705038, 43.5928877], [-80.2705536, 43.5928609], [-80.2706161, 43.5928163], [-80.270691, 43.5927718], [-80.2707531, 43.5927454], [-80.2708157, 43.5927006], [-80.2708656, 43.5926739], [-80.2709155, 43.5926563], [-80.2709527, 43.5926385], [-80.2710152, 43.5925938], [-80.2710531, 43.5925401], [-80.2710913, 43.5924503], [-80.2711167, 43.5924054], [-80.2711669, 43.5923427], [-80.2712292, 43.5923161], [-80.2712917, 43.5922714], [-80.2713293, 43.5922266], [-80.2713668, 43.5921998], [-80.2714043, 43.5921641], [-80.2714298, 43.5921193], [-80.2714676, 43.5920745], [-80.2715179, 43.5920027], [-80.2715678, 43.5919671], [-80.2716181, 43.5919134], [-80.2717308, 43.5918149], [-80.2717687, 43.5917613], [-80.2718188, 43.5917076], [-80.2719322, 43.5915461], [-80.2719947, 43.5915016], [-80.2720192, 43.5915197], [-80.2720439, 43.591529], [-80.272093, 43.5915652], [-80.2721425, 43.5915745], [-80.2721797, 43.5915657], [-80.2722295, 43.591548], [-80.2722789, 43.5915574], [-80.2723783, 43.59154], [-80.2724532, 43.5914865], [-80.2725155, 43.5914599], [-80.2726902, 43.5913529], [-80.272753, 43.5912904], [-80.2728281, 43.5912278], [-80.2729286, 43.5911023], [-80.2729787, 43.5910576], [-80.2730162, 43.591031], [-80.2730541, 43.590986], [-80.273104, 43.5909414], [-80.2731292, 43.5909055], [-80.27313, 43.5908426], [-80.2731683, 43.5907437], [-80.2731935, 43.5907078], [-80.273231, 43.5906811], [-80.2732568, 43.5906001], [-80.2732574, 43.5905462], [-80.2732829, 43.5904923], [-80.2733836, 43.5903579], [-80.2734348, 43.5902141], [-80.273448, 43.5901602], [-80.2734732, 43.5901152], [-80.273474, 43.5900613], [-80.2734999, 43.5899533], [-80.2734883, 43.5898904], [-80.2735014, 43.5898364], [-80.2735021, 43.5897734], [-80.2735284, 43.5896565], [-80.273529, 43.5895935], [-80.2735544, 43.5895486], [-80.2735805, 43.5894317], [-80.2736186, 43.5893599], [-80.2736442, 43.589297], [-80.2736571, 43.5892431], [-80.2736826, 43.5891802], [-80.2737214, 43.5890453], [-80.2737468, 43.5889916], [-80.27376, 43.5889286], [-80.2737857, 43.5888567], [-80.2738117, 43.5887399], [-80.2738243, 43.5887219], [-80.2738266, 43.5885419], [-80.2738398, 43.5884699], [-80.2738654, 43.5884071], [-80.2739161, 43.5883083], [-80.2739538, 43.5882634], [-80.2739794, 43.5881917], [-80.2740048, 43.5881467], [-80.2740176, 43.5881109], [-80.2740427, 43.588093], [-80.2740552, 43.5880751], [-80.2740554, 43.5880571], [-80.2741682, 43.5879497], [-80.2741934, 43.5879139], [-80.2742568, 43.5877881], [-80.2742945, 43.5877435], [-80.2743324, 43.5876808], [-80.2744207, 43.5875642], [-80.2744711, 43.5874834], [-80.2745214, 43.5874298], [-80.2746218, 43.5873044], [-80.2746978, 43.5871607], [-80.2747859, 43.5870531], [-80.2748115, 43.5869903], [-80.274862, 43.5869097], [-80.2748877, 43.5868287], [-80.2749129, 43.5868019], [-80.2750129, 43.5867305], [-80.2750381, 43.5866857], [-80.2750511, 43.5866317], [-80.2750768, 43.5865599], [-80.2751146, 43.5865061], [-80.2751276, 43.5864521], [-80.2751907, 43.5863534], [-80.2752291, 43.5862637], [-80.2752665, 43.5862278], [-80.2752918, 43.5861921], [-80.2753171, 43.5861472], [-80.2753301, 43.5861113], [-80.275331, 43.5860301], [-80.275319, 43.5859851], [-80.2753197, 43.585931], [-80.2753457, 43.5858232], [-80.2753713, 43.5857604], [-80.2753717, 43.5857244], [-80.2753597, 43.5856882], [-80.2753354, 43.5856521], [-80.2753108, 43.5856339], [-80.2752621, 43.5855706], [-80.2752382, 43.5854984], [-80.2752147, 43.5853902], [-80.2752153, 43.5853362], [-80.2751912, 43.585282], [-80.2751918, 43.5852279], [-80.2752049, 43.585174], [-80.2753183, 43.5850217], [-80.2753435, 43.5849768], [-80.2753691, 43.584905], [-80.2753944, 43.5848691], [-80.2753948, 43.584833], [-80.2753828, 43.5848061], [-80.2753837, 43.5847339], [-80.2753966, 43.58468], [-80.2754343, 43.5846352], [-80.2754471, 43.5845993], [-80.2754601, 43.5845544], [-80.2754606, 43.5845093], [-80.2754734, 43.5844734], [-80.2754738, 43.5844464], [-80.2754866, 43.5844105], [-80.2755495, 43.5843298], [-80.275587, 43.584294], [-80.2755875, 43.584258], [-80.2756002, 43.5842311], [-80.2756012, 43.5841501], [-80.2755773, 43.5840779], [-80.2755777, 43.5840329], [-80.2755661, 43.5839788], [-80.2755667, 43.5839336], [-80.2755794, 43.5838888], [-80.2756045, 43.583871], [-80.2756427, 43.5837992], [-80.2756453, 43.5835741], [-80.2756835, 43.5834843], [-80.2757088, 43.5834484], [-80.2757214, 43.5834215], [-80.2757217, 43.5833945], [-80.2757347, 43.5833495], [-80.2757357, 43.5832595], [-80.2757238, 43.5832323], [-80.2756502, 43.5831599], [-80.2756383, 43.5831237], [-80.2756015, 43.5830876], [-80.2755647, 43.5830693], [-80.2755401, 43.5830511], [-80.2754908, 43.583033], [-80.2754661, 43.5830147], [-80.2754291, 43.5830054], [-80.2753675, 43.5829779], [-80.2752813, 43.5829325], [-80.2751714, 43.5828056], [-80.2751224, 43.5827604], [-80.2750855, 43.582733], [-80.2750488, 43.5826969], [-80.2749506, 43.5826242], [-80.274889, 43.5825967], [-80.2748523, 43.5825606], [-80.274803, 43.5825423], [-80.2746054, 43.582496], [-80.2745439, 43.5824506], [-80.2745073, 43.5824142], [-80.2744705, 43.5823691], [-80.2744459, 43.5823599], [-80.2744101, 43.5822515], [-80.2744107, 43.5821976], [-80.274399, 43.5821435], [-80.2743997, 43.5820895], [-80.2743879, 43.5820353], [-80.2743898, 43.5818823], [-80.274378, 43.5818282], [-80.2743789, 43.5817561], [-80.2744172, 43.5816664], [-80.2744423, 43.5816306], [-80.2744929, 43.5815408], [-80.274556, 43.5814511], [-80.2745815, 43.5813973], [-80.27462, 43.5812626], [-80.2746084, 43.5812174], [-80.2746093, 43.5811364], [-80.2745974, 43.5811003], [-80.2745731, 43.5810551], [-80.2745733, 43.581037], [-80.2745244, 43.5809918], [-80.2745004, 43.5809196], [-80.2745021, 43.5807935], [-80.2745276, 43.5807307], [-80.2745288, 43.5806226], [-80.2745416, 43.5805867], [-80.2745421, 43.5805418], [-80.2745303, 43.5805056], [-80.2745181, 43.5804874], [-80.2744689, 43.5804512], [-80.2744566, 43.5804331], [-80.274432, 43.5804239], [-80.2744077, 43.5803878], [-80.2744094, 43.5802437], [-80.2743975, 43.5802076], [-80.2743485, 43.5801712], [-80.2743244, 43.5801171], [-80.2743373, 43.5800631], [-80.2743378, 43.5800272], [-80.2743503, 43.5800092], [-80.2743752, 43.5800003], [-80.2744128, 43.5799737], [-80.2744503, 43.5799378], [-80.2744752, 43.579929], [-80.2744999, 43.579929], [-80.2745248, 43.5799202], [-80.2745498, 43.5799024], [-80.2745747, 43.5798936], [-80.2745997, 43.5798758], [-80.2746124, 43.5798487], [-80.2746376, 43.579813], [-80.2746505, 43.579768], [-80.2746509, 43.579732], [-80.274664, 43.579678], [-80.2746656, 43.579561], [-80.2747048, 43.5793812], [-80.2747052, 43.5793362], [-80.2747184, 43.5792732], [-80.2747189, 43.5792282], [-80.2747072, 43.5791742], [-80.2747078, 43.5791201], [-80.2746722, 43.5789938], [-80.2746479, 43.5789485], [-80.274587, 43.5788671], [-80.2745752, 43.5788221], [-80.274527, 43.5787138], [-80.2745153, 43.5786596], [-80.2744788, 43.5785964], [-80.2744551, 43.5785062], [-80.2744307, 43.578479], [-80.2744311, 43.578443], [-80.2744072, 43.5783708], [-80.2743954, 43.5783167], [-80.2743475, 43.5781904], [-80.2743607, 43.5781184], [-80.2743612, 43.5780734], [-80.2744119, 43.5779747], [-80.2744752, 43.5778671], [-80.2745379, 43.5777954], [-80.2746256, 43.5777149], [-80.2746631, 43.5776882], [-80.2747004, 43.5776703], [-80.2747513, 43.5776375], [-80.2748228, 43.5776025], [-80.2748704, 43.5775702], [-80.2748955, 43.577545], [-80.2749208, 43.5775102], [-80.274955, 43.5774852], [-80.2750211, 43.5774597], [-80.2750407, 43.5774435], [-80.275066, 43.5773953], [-80.2750918, 43.5773769], [-80.2751268, 43.5773625], [-80.2752037, 43.5773437], [-80.2752355, 43.5773434], [-80.2752518, 43.5773323], [-80.275265, 43.5773161], [-80.2753041, 43.5772381], [-80.2753237, 43.5772151], [-80.2753525, 43.5771983], [-80.2754061, 43.5771803], [-80.2754356, 43.5771753], [-80.2754636, 43.5771637], [-80.2755151, 43.5771291], [-80.2756536, 43.5770045], [-80.275678, 43.576972], [-80.2757026, 43.5769312], [-80.2756893, 43.576869], [-80.2756994, 43.5767341], [-80.2757304, 43.5766793], [-80.2757504, 43.5766146], [-80.2757699, 43.5764705], [-80.2757929, 43.5762367], [-80.2757884, 43.5761567], [-80.2757769, 43.5760796], [-80.275737, 43.5759859], [-80.2756869, 43.5759682], [-80.2755634, 43.5759437], [-80.2755288, 43.5759277], [-80.2755097, 43.5759028], [-80.2755085, 43.5758754], [-80.2755838, 43.5758521], [-80.2756026, 43.5758359], [-80.2756082, 43.5758173], [-80.2755861, 43.5757947], [-80.2755446, 43.5757748], [-80.2754248, 43.5757503], [-80.2753935, 43.5757254], [-80.275376, 43.575691], [-80.2753663, 43.5756565], [-80.2753625, 43.575593], [-80.2753081, 43.5755448], [-80.2752382, 43.5754954], [-80.2752383, 43.5754814], [-80.2752566, 43.5754493], [-80.2752552, 43.5754307], [-80.2752206, 43.5754131], [-80.2752016, 43.5753899], [-80.2751949, 43.5753674], [-80.2752013, 43.575351], [-80.2752262, 43.5753371], [-80.275248, 43.5753305], [-80.2752574, 43.5753165], [-80.2752475, 43.575303], [-80.2752191, 43.575287], [-80.2752025, 43.5752554], [-80.2751764, 43.5751663], [-80.2751626, 43.5750952], [-80.2751647, 43.5749834], [-80.2752065, 43.5748458], [-80.2752138, 43.5747541], [-80.2752073, 43.574722], [-80.2752162, 43.57469], [-80.2752382, 43.574667], [-80.2752344, 43.5745938], [-80.2751755, 43.5744678], [-80.2750507, 43.5742882], [-80.2750181, 43.574231], [-80.2750057, 43.5741855], [-80.2749974, 43.5740847], [-80.2750066, 43.5740347], [-80.2749767, 43.5739292], [-80.2749253, 43.5738428], [-80.2746797, 43.5736049], [-80.2745995, 43.573516], [-80.2745581, 43.5734775], [-80.2745202, 43.5734621], [-80.2744639, 43.5734555], [-80.2743814, 43.5734285], [-80.2743493, 43.5734013], [-80.2743085, 43.5733786], [-80.2742583, 43.5733765], [-80.2741725, 43.5733614], [-80.2740622, 43.5733259], [-80.2739985, 43.5732781], [-80.2739376, 43.5732029], [-80.2738617, 43.5731349], [-80.2737189, 43.5731012], [-80.2735961, 43.5730814], [-80.2735174, 43.573055], [-80.2734693, 43.5730135], [-80.2734248, 43.5729677], [-80.2733892, 43.5729084], [-80.2733355, 43.5728676], [-80.2732723, 43.5728453], [-80.2731934, 43.5728368], [-80.2731588, 43.5728164], [-80.2731075, 43.5727755], [-80.2730726, 43.5727207], [-80.2730249, 43.5726873], [-80.2729675, 43.572639], [-80.2728725, 43.5726148], [-80.2728157, 43.5725878], [-80.272768, 43.5725515], [-80.2727677, 43.5725173], [-80.2727451, 43.5724738], [-80.2725856, 43.572285], [-80.276901, 43.5691], [-80.2765839, 43.5683785], [-80.2783778, 43.5670905], [-80.2790452, 43.5689018], [-80.2796845, 43.5684665], [-80.2799708, 43.5686686], [-80.2819301, 43.5672363], [-80.2866654, 43.5637957], [-80.2885015, 43.5624016], [-80.2944366, 43.5633955], [-80.2944937, 43.5634368], [-80.2978331, 43.5609957], [-80.301617, 43.5581961], [-80.3036072, 43.5567331], [-80.3017386, 43.555374], [-80.3035851, 43.5540317], [-80.3107461, 43.5488257], [-80.3196031, 43.5422603], [-80.3178676, 43.5410005], [-80.3198647, 43.5395521], [-80.323794, 43.5367434], [-80.3255433, 43.535493], [-80.3255999, 43.5354525], [-80.3269091, 43.5345166]]]}}]}