{"type": "FeatureCollection", "features": [{"type": "Feature", "properties": {"name": "Region of Waterloo", "osm_type": "relation", "osm_id": 2062151}, "geometry": {"type": "Polygon", "coordinates": [[[-80.8690216, 43.4980466], [-80.8683156, 43.4977669], [-80.8653948, 43.4965744], [-80.8649528, 43.4963879], [-80.8644859, 43.4962153], [-80.8620782, 43.4952256], [-80.8578961, 43.4934806], [-80.8556633, 43.4925489], [-80.8538527, 43.4918021], [-80.8512115, 43.4907127], [-80.8491267, 43.4898602], [-80.8476549, 43.4892615], [-80.845992, 43.488585], [-80.8424478, 43.4871432], [-80.8395932, 43.4859895], [-80.8348072, 43.4840168], [-80.8342407, 43.4837812], [-80.8296177, 43.4818585], [-80.8255989, 43.4801614], [-80.8243198, 43.4797098], [-80.8226046, 43.4790503], [-80.8194268, 43.477723], [-80.8162277, 43.4764051], [-80.8144316, 43.4756911], [-80.8126454, 43.4749685], [-80.8096969, 43.4737408], [-80.8091424, 43.473547], [-80.8062126, 43.4723579], [-80.8045393, 43.4716577], [-80.8030292, 43.4710412], [-80.800934, 43.4701873], [-80.7995872, 43.469673], [-80.7974075, 43.4687912], [-80.7955526, 43.4680855], [-80.7943473, 43.4668755], [-80.7938107, 43.4663441], [-80.7935244, 43.466049], [-80.7931513, 43.4656892], [-80.7926161, 43.4651161], [-80.7914998, 43.4639786], [-80.7892954, 43.4616715], [-80.7877625, 43.4601483], [-80.7779799, 43.4502671], [-80.7741586, 43.4461079], [-80.7728166, 43.4447635], [-80.771448, 43.4433589], [-80.7697191, 43.4415844], [-80.7671514, 43.4389488], [-80.7639299, 43.4353686], [-80.7637715, 43.4352031], [-80.7630932, 43.4344584], [-80.7569328, 43.4280349], [-80.7521872, 43.4230301], [-80.7457427, 43.4163172], [-80.7372524, 43.4075175], [-80.7372109, 43.4052363], [-80.7372093, 43.4040209], [-80.7369601, 43.3931029], [-80.7368458, 43.3869223], [-80.736591, 43.3793182], [-80.7363379, 43.3704144], [-80.73629, 43.3692929], [-80.7362856, 43.3690838], [-80.736279, 43.3687646], [-80.7358952, 43.3564361], [-80.7358687, 43.3560528], [-80.7358432, 43.3554489], [-80.7358366, 43.354514], [-80.7358346, 43.3536615], [-80.7357918, 43.3534812], [-80.7357998, 43.3532964], [-80.7355843, 43.3446582], [-80.7354028, 43.3384026], [-80.7353946, 43.3381149], [-80.7353942, 43.3381025], [-80.7352028, 43.3315057], [-80.7351994, 43.3313198], [-80.7351257, 43.3273012], [-80.7350195, 43.3215134], [-80.7350181, 43.3214394], [-80.7350155, 43.3213178], [-80.735014, 43.3212524], [-80.7349, 43.3159736], [-80.7348771, 43.3149116], [-80.7348945, 43.313386], [-80.7348713, 43.3112613], [-80.7348633, 43.3109516], [-80.7325927, 43.3113318], [-80.7252468, 43.3124386], [-80.7204599, 43.3131597], [-80.7162202, 43.313798], [-80.7104547, 43.3146659], [-80.7101872, 43.314707], [-80.7028743, 43.3158099], [-80.6953818, 43.3169347], [-80.6910299, 43.3175881], [-80.6866783, 43.3183209], [-80.679349, 43.3194876], [-80.6763886, 43.3199697], [-80.6729645, 43.3205037], [-80.6653911, 43.321697], [-80.664751, 43.3217979], [-80.6644942, 43.3218378], [-80.6578084, 43.322879], [-80.6495007, 43.3241721], [-80.6431879, 43.3251542], [-80.6429666, 43.3251896], [-80.6427481, 43.3252253], [-80.6334783, 43.326738], [-80.6332358, 43.3267775], [-80.6262053, 43.3279242], [-80.6197389, 43.3289788], [-80.6193563, 43.3290462], [-80.6193427, 43.3290361], [-80.612195, 43.330337], [-80.6091232, 43.3308975], [-80.6076538, 43.3311655], [-80.6054135, 43.3315741], [-80.5979354, 43.3327487], [-80.594837, 43.3332112], [-80.5945798, 43.3332497], [-80.5932318, 43.3334745], [-80.5916591, 43.3337368], [-80.5902028, 43.3339798], [-80.5899661, 43.3340191], [-80.5865208, 43.3345925], [-80.5827398, 43.3351884], [-80.5755314, 43.3363623], [-80.5735673, 43.3366806], [-80.5683635, 43.3374466], [-80.5672214, 43.337623], [-80.5649105, 43.33798], [-80.5610441, 43.3385861], [-80.5530272, 43.3398766], [-80.5510765, 43.3401951], [-80.547879, 43.3407172], [-80.5471836, 43.3408308], [-80.5471523, 43.3407272], [-80.5469121, 43.3407659], [-80.5469537, 43.3408683], [-80.5339941, 43.3429832], [-80.5283333, 43.3439359], [-80.5154091, 43.3461117], [-80.5110037, 43.3468527], [-80.5035979, 43.3480975], [-80.4987247, 43.3358305], [-80.4900304, 43.3135593], [-80.4890271, 43.3110004], [-80.4828, 43.2951352], [-80.479636, 43.2870847], [-80.477261, 43.2811462], [-80.477241, 43.2810867], [-80.4747401, 43.2747471], [-80.4716021, 43.2669044], [-80.4715962, 43.2668244], [-80.4714437, 43.2668303], [-80.4636062, 43.2681052], [-80.4574101, 43.2691671], [-80.4512689, 43.2702078], [-80.44516, 43.2712984], [-80.4449187, 43.2713399], [-80.4391864, 43.2723312], [-80.4271336, 43.2744374], [-80.4211309, 43.2754763], [-80.4148906, 43.2765578], [-80.4088885, 43.277605], [-80.4028456, 43.2785552], [-80.3968334, 43.2796076], [-80.3929982, 43.2802701], [-80.3928405, 43.2802974], [-80.3907104, 43.2806652], [-80.3894637, 43.2808698], [-80.3855767, 43.2815079], [-80.385288, 43.2815555], [-80.3843825, 43.2817045], [-80.3838433, 43.2817936], [-80.3821579, 43.282072], [-80.3810508, 43.2822548], [-80.378487, 43.2826781], [-80.3759324, 43.2831057], [-80.3742729, 43.2833835], [-80.372444, 43.2836896], [-80.369106, 43.2842482], [-80.3648992, 43.284952], [-80.3641672, 43.2850744], [-80.3544926, 43.2866922], [-80.348476, 43.2877435], [-80.3482346, 43.2877857], [-80.3431706, 43.2886701], [-80.3428654, 43.2887234], [-80.3420906, 43.2888587], [-80.3362027, 43.2898866], [-80.3301394, 43.290945], [-80.3283354, 43.2912651], [-80.325295, 43.2918045], [-80.3194845, 43.2928352], [-80.3193094, 43.2928623], [-80.3182323, 43.293042], [-80.3149516, 43.2935822], [-80.3146583, 43.2936305], [-80.311827, 43.2940966], [-80.3112634, 43.2941934], [-80.3052947, 43.2952182], [-80.2930237, 43.2973092], [-80.2870412, 43.2983017], [-80.2748263, 43.3003628], [-80.2686347, 43.3014222], [-80.2654197, 43.3019634], [-80.2625725, 43.3024426], [-80.2590749, 43.3029994], [-80.2565802, 43.3033964], [-80.2564269, 43.3034204], [-80.2504404, 43.3044744], [-80.2443724, 43.3054631], [-80.2384036, 43.306513], [-80.238434, 43.306601], [-80.2485579, 43.3334941], [-80.2484713, 43.3335127], [-80.2444681, 43.3341803], [-80.2433819, 43.3343812], [-80.2430937, 43.3344345], [-80.2424523, 43.334541], [-80.2383665, 43.3352201], [-80.2379731, 43.3352854], [-80.2378725, 43.335302], [-80.2375623, 43.3353533], [-80.237521, 43.3353601], [-80.2374063, 43.3353792], [-80.2372848, 43.3353994], [-80.235965, 43.3356185], [-80.2334993, 43.3360281], [-80.2333527, 43.3360525], [-80.2333052, 43.3360604], [-80.2284168, 43.3368738], [-80.2235125, 43.3376895], [-80.2187374, 43.3384835], [-80.2135017, 43.3393539], [-80.2133891, 43.3393726], [-80.2132599, 43.339394], [-80.2125269, 43.3395159], [-80.2088234, 43.3401313], [-80.2043819, 43.3408693], [-80.2006429, 43.3415124], [-80.2004524, 43.3415453], [-80.1993045, 43.3417432], [-80.1917251, 43.3430847], [-80.1910155, 43.3432109], [-80.1892866, 43.3435145], [-80.1906952, 43.3478359], [-80.1912536, 43.3495487], [-80.1912569, 43.3495587], [-80.1913053, 43.349709], [-80.1913085, 43.3497189], [-80.1920136, 43.3519063], [-80.1921541, 43.3523419], [-80.1922109, 43.3525182], [-80.1951544, 43.3613493], [-80.1966349, 43.3657896], [-80.1967815, 43.3662295], [-80.1972215, 43.3675491], [-80.1973682, 43.3679889], [-80.1975148, 43.3684288], [-80.1978081, 43.3693084], [-80.1981015, 43.3701881], [-80.1980676, 43.3701939], [-80.1974647, 43.3702969], [-80.1975062, 43.3704162], [-80.197526, 43.3704731], [-80.1987645, 43.3746236], [-80.2001492, 43.3792633], [-80.201455, 43.3836379], [-80.2027362, 43.38793], [-80.2027776, 43.3880624], [-80.2033728, 43.3879595], [-80.2034301, 43.3881357], [-80.203689, 43.3889367], [-80.2064335, 43.3971747], [-80.2113554, 43.3963194], [-80.2162883, 43.3955292], [-80.2177259, 43.3952986], [-80.2190313, 43.3950892], [-80.2194906, 43.3950155], [-80.2212265, 43.3947303], [-80.2262676, 43.3939258], [-80.2345928, 43.392631], [-80.2363076, 43.3923529], [-80.2384091, 43.3920192], [-80.2394723, 43.3918876], [-80.2411185, 43.3916072], [-80.2430031, 43.391301], [-80.2436371, 43.3912051], [-80.2459731, 43.3908237], [-80.2480872, 43.3904732], [-80.2488659, 43.3903407], [-80.2508555, 43.3900003], [-80.2544862, 43.3894062], [-80.2556016, 43.3892356], [-80.2567204, 43.3890521], [-80.2604715, 43.3884518], [-80.2607724, 43.388404], [-80.2673059, 43.38731], [-80.2678492, 43.3872165], [-80.2685777, 43.3870954], [-80.2692648, 43.3869853], [-80.2693832, 43.3869644], [-80.2696761, 43.3877079], [-80.2698471, 43.3882484], [-80.27054, 43.3898659], [-80.2714884, 43.392251], [-80.2720317, 43.3935863], [-80.2722405, 43.3940915], [-80.272294, 43.3942229], [-80.2726922, 43.3952646], [-80.2731011, 43.3962847], [-80.2732822, 43.3967302], [-80.2733033, 43.3967819], [-80.2733168, 43.3968148], [-80.2738174, 43.3980486], [-80.2740315, 43.3985745], [-80.2750213, 43.4010174], [-80.2750429, 43.40107], [-80.2753849, 43.4019002], [-80.2758047, 43.4029418], [-80.2767026, 43.4052092], [-80.2775951, 43.407406], [-80.2795343, 43.4118758], [-80.2800084, 43.4128998], [-80.281462, 43.4160391], [-80.2814705, 43.4160574], [-80.2815538, 43.416279], [-80.2822188, 43.4180134], [-80.2823705, 43.4184117], [-80.283213, 43.4206115], [-80.2833076, 43.4208583], [-80.2845977, 43.4242234], [-80.2848084, 43.4247743], [-80.2849094, 43.4250385], [-80.2850179, 43.4253013], [-80.2850619, 43.4254078], [-80.2853858, 43.4261915], [-80.2866843, 43.4293328], [-80.2867194, 43.4294199], [-80.2868878, 43.4298365], [-80.2885549, 43.4339328], [-80.2895313, 43.4363319], [-80.2900533, 43.4376145], [-80.2914245, 43.4410167], [-80.2921374, 43.4427347], [-80.2922611, 43.4431007], [-80.2923111, 43.4432383], [-80.2972399, 43.4544418], [-80.2979856, 43.4565972], [-80.298282, 43.4573423], [-80.2989449, 43.459009], [-80.2998961, 43.4614001], [-80.300002, 43.4616664], [-80.3001382, 43.4620088], [-80.3006298, 43.4632475], [-80.3015213, 43.4654935], [-80.3025262, 43.4680255], [-80.30272, 43.4685196], [-80.3027802, 43.4685819], [-80.3028416, 43.4686478], [-80.3030796, 43.4689031], [-80.3032569, 43.4690934], [-80.3050942, 43.4710651], [-80.3052142, 43.4711939], [-80.3056643, 43.471677], [-80.305822, 43.4718461], [-80.3058338, 43.4718588], [-80.3059064, 43.4719367], [-80.3061826, 43.4722358], [-80.3062805, 43.4723418], [-80.3069981, 43.4730878], [-80.3080349, 43.4741654], [-80.3147832, 43.4800508], [-80.317168, 43.4820581], [-80.3181584, 43.4828905], [-80.3182668, 43.4829863], [-80.3221378, 43.4864097], [-80.3239756, 43.4881067], [-80.3241657, 43.4882822], [-80.3242939, 43.4884005], [-80.3244471, 43.488542], [-80.3256014, 43.4896079], [-80.3257709, 43.4897544], [-80.3271821, 43.4909747], [-80.3282392, 43.4918887], [-80.3289596, 43.4925114], [-80.3297055, 43.4931533], [-80.3309227, 43.4942006], [-80.3321398, 43.4952478], [-80.3333566, 43.4962947], [-80.3345737, 43.4973418], [-80.3356996, 43.4983105], [-80.3410925, 43.5029602], [-80.3411428, 43.5030036], [-80.3426428, 43.504349], [-80.3437683, 43.5053203], [-80.3440417, 43.5055562], [-80.346554, 43.5077244], [-80.3476273, 43.5086506], [-80.351291, 43.5118053], [-80.3517441, 43.5121975], [-80.3517453, 43.5121986], [-80.3525867, 43.5129268], [-80.3537374, 43.5139386], [-80.354372, 43.5144964], [-80.3564394, 43.5163141], [-80.3566333, 43.5164846], [-80.3593366, 43.5189266], [-80.3600855, 43.5196013], [-80.360775, 43.5202226], [-80.3632585, 43.5224673], [-80.3640071, 43.5231438], [-80.3670869, 43.525931], [-80.3699645, 43.5285828], [-80.373872, 43.5325706], [-80.3738355, 43.5327599], [-80.3738, 43.5329472], [-80.3672963, 43.5690543], [-80.3684283, 43.5686657], [-80.3690414, 43.5684548], [-80.3691597, 43.568406], [-80.3696696, 43.5681954], [-80.3715906, 43.5675254], [-80.3719153, 43.5674112], [-80.3734802, 43.5668604], [-80.3734831, 43.5668618], [-80.3752146, 43.5662483], [-80.3758925, 43.5660081], [-80.3765755, 43.565766], [-80.3772549, 43.5655272], [-80.3785467, 43.5650729], [-80.3788478, 43.5649478], [-80.3793489, 43.5647753], [-80.380099, 43.564517], [-80.38012, 43.5645493], [-80.3814844, 43.5640806], [-80.3829744, 43.5635674], [-80.3830685, 43.5636352], [-80.3848364, 43.564906], [-80.3859361, 43.5656935], [-80.387536, 43.5668511], [-80.3884018, 43.5674583], [-80.3898746, 43.568489], [-80.3901653, 43.5686924], [-80.3927565, 43.5705057], [-80.394202, 43.5715745], [-80.3963913, 43.5731932], [-80.3973304, 43.5738876], [-80.3974309, 43.5739619], [-80.3975614, 43.5740563], [-80.3976406, 43.5741135], [-80.3978153, 43.5742399], [-80.3983679, 43.5746395], [-80.3989021, 43.575026], [-80.4047511, 43.5792562], [-80.409603, 43.5827646], [-80.4099409, 43.583009], [-80.4100047, 43.5830551], [-80.4104804, 43.5833991], [-80.416356, 43.5876398], [-80.4197167, 43.5900649], [-80.4199592, 43.5902405], [-80.4205235, 43.5906525], [-80.4267659, 43.5951846], [-80.4283943, 43.5963497], [-80.4290999, 43.5968607], [-80.4295069, 43.5971554], [-80.4377275, 43.6030369], [-80.4635172, 43.6216674], [-80.4680559, 43.6249524], [-80.4752185, 43.6301321], [-80.4755403, 43.6303649], [-80.4760365, 43.6307236], [-80.4764369, 43.6310132], [-80.4775872, 43.6318448], [-80.477642, 43.6318844], [-80.4796628, 43.6333454], [-80.4799568, 43.6335581], [-80.4801601, 43.633705], [-80.4843966, 43.6367644], [-80.4849789, 43.6371848], [-80.4861392, 43.6380225], [-80.4993707, 43.6475744], [-80.5028778, 43.6500877], [-80.5031518, 43.6502842], [-80.5033824, 43.6504505], [-80.5057357, 43.6521472], [-80.5059558, 43.6523059], [-80.5060173, 43.6523495], [-80.50719, 43.6531799], [-80.5107137, 43.6556847], [-80.5108561, 43.6557897], [-80.5124087, 43.6569118], [-80.5154479, 43.6591221], [-80.521257, 43.6633465], [-80.5215264, 43.6635424], [-80.5225436, 43.664282], [-80.5226627, 43.6643676], [-80.5288381, 43.6688061], [-80.5306534, 43.6701072], [-80.5324083, 43.6713649], [-80.5331526, 43.6718977], [-80.5377951, 43.6752213], [-80.5395561, 43.6765125], [-80.5396736, 43.6765986], [-80.5432464, 43.6792178], [-80.5446423, 43.6802337], [-80.5575109, 43.6895905], [-80.557802, 43.6893902], [-80.5581494, 43.6891426], [-80.5631289, 43.6853746], [-80.5659073, 43.6833398], [-80.5665724, 43.6828526], [-80.5705631, 43.6799295], [-80.5706246, 43.6798844], [-80.5716606, 43.6791256], [-80.5723292, 43.6786308], [-80.5726659, 43.6783816], [-80.577547, 43.674769], [-80.5790208, 43.6736872], [-80.584503, 43.6696624], [-80.5846369, 43.6695642], [-80.5848285, 43.6694235], [-80.587675, 43.6673507], [-80.5953515, 43.6617599], [-80.595513, 43.6609465], [-80.5956116, 43.6604497], [-80.5968495, 43.6530067], [-80.5975068, 43.6490535], [-80.5977134, 43.6478832], [-80.5981707, 43.6452917], [-80.5994925, 43.6378015], [-80.5994966, 43.6377631], [-80.5994956, 43.6377246], [-80.5994893, 43.6376864], [-80.5994778, 43.6376487], [-80.5994612, 43.6376122], [-80.5994398, 43.637577], [-80.5994136, 43.6375435], [-80.5993831, 43.637512], [-80.5993483, 43.6374829], [-80.5993098, 43.6374564], [-80.599268, 43.6374329], [-80.599223, 43.6374124], [-80.5991755, 43.6373953], [-80.5991259, 43.6373816], [-80.5990748, 43.6373716], [-80.5990225, 43.6373653], [-80.5995614, 43.6374106], [-80.5995873, 43.6372625], [-80.5997119, 43.6365034], [-80.600155, 43.633956], [-80.6011857, 43.6280706], [-80.6012021, 43.6279761], [-80.6021717, 43.6224384], [-80.6027256, 43.6192751], [-80.6027455, 43.6191611], [-80.6032739, 43.6161421], [-80.6039639, 43.6121996], [-80.6040804, 43.6115345], [-80.6046663, 43.6081861], [-80.6053356, 43.6043608], [-80.6053, 43.6043575], [-80.6053306, 43.6041786], [-80.6053386, 43.6041319], [-80.6054514, 43.603471], [-80.6054658, 43.6033262], [-80.6054601, 43.6031811], [-80.6054342, 43.6030372], [-80.6053884, 43.602896], [-80.6053233, 43.6027587], [-80.6052394, 43.602627], [-80.6051376, 43.6025022], [-80.605019, 43.6023854], [-80.6048847, 43.6022779], [-80.6047367, 43.6021812], [-80.6045811, 43.6020895], [-80.6048188, 43.6018765], [-80.6049751, 43.6019687], [-80.6051274, 43.6020668], [-80.6052685, 43.6021749], [-80.605396, 43.6022917], [-80.605509, 43.6024159], [-80.6056752, 43.6024315], [-80.605965, 43.6007842], [-80.6052051, 43.6010077], [-80.6054316, 43.6007846], [-80.6056286, 43.6005473], [-80.6057944, 43.6002977], [-80.6059275, 43.6000379], [-80.6060271, 43.5997703], [-80.6060919, 43.5994971], [-80.606312, 43.599517], [-80.6072267, 43.5942339], [-80.6072679, 43.5939957], [-80.6080361, 43.5894265], [-80.6081083, 43.5889776], [-80.6085107, 43.589141], [-80.6150453, 43.5918245], [-80.6213895, 43.5944129], [-80.6347525, 43.5998649], [-80.6348148, 43.5997866], [-80.6349234, 43.599831], [-80.6350326, 43.5998746], [-80.6349719, 43.5999508], [-80.6355343, 43.6001593], [-80.6365891, 43.6005504], [-80.6372833, 43.6008078], [-80.6378788, 43.6010396], [-80.6381828, 43.6011579], [-80.6386493, 43.6013395], [-80.6389814, 43.6014656], [-80.6392115, 43.6015524], [-80.6392406, 43.601564], [-80.6405618, 43.6020924], [-80.6415485, 43.6024869], [-80.6416545, 43.6025358], [-80.6432721, 43.6031761], [-80.6449275, 43.6038381], [-80.6450598, 43.603891], [-80.6458679, 43.604214], [-80.6482281, 43.6051576], [-80.6487553, 43.6053683], [-80.6488836, 43.6054179], [-80.649447, 43.6056383], [-80.6499631, 43.6058386], [-80.6506724, 43.6061083], [-80.6536539, 43.6072751], [-80.6541089, 43.6074531], [-80.6548578, 43.6077461], [-80.6549674, 43.607789], [-80.6550767, 43.6078325], [-80.6583978, 43.6091552], [-80.6617086, 43.610474], [-80.6650155, 43.6117958], [-80.6683222, 43.6131173], [-80.6716317, 43.6144398], [-80.674388, 43.6155411], [-80.6749352, 43.6157597], [-80.6751541, 43.6158464], [-80.6750932, 43.6159253], [-80.6817143, 43.6185458], [-80.6828502, 43.6189791], [-80.6850623, 43.6198679], [-80.6883473, 43.6211651], [-80.6912614, 43.622336], [-80.6950419, 43.6238547], [-80.6973476, 43.6247803], [-80.7017528, 43.6265488], [-80.7082905, 43.6292342], [-80.7144771, 43.6317732], [-80.7150369, 43.6320111], [-80.71505, 43.6320166], [-80.7183263, 43.6333525], [-80.7216133, 43.6346928], [-80.7248849, 43.6360303], [-80.7254491, 43.6362609], [-80.728168, 43.6373724], [-80.7343848, 43.6399566], [-80.7347126, 43.6400928], [-80.7347968, 43.6401277], [-80.7349608, 43.6401957], [-80.7380179, 43.6414619], [-80.7381819, 43.6415298], [-80.7389023, 43.6418282], [-80.7411223, 43.6427476], [-80.7414504, 43.6428835], [-80.7417771, 43.6430212], [-80.7438785, 43.6439074], [-80.7446996, 43.6442537], [-80.7448305, 43.6443089], [-80.7472186, 43.6453159], [-80.7479555, 43.6456266], [-80.7541251, 43.6482164], [-80.7544627, 43.6483547], [-80.7546213, 43.6484234], [-80.7698763, 43.6290856], [-80.7713948, 43.6271345], [-80.7717222, 43.6267421], [-80.788261, 43.6060479], [-80.7885178, 43.6057193], [-80.7968979, 43.5951788], [-80.8051252, 43.5847546], [-80.8055411, 43.5842336], [-80.8116252, 43.5763213], [-80.8135163, 43.5739201], [-80.8206465, 43.5646115], [-80.8220821, 43.5626967], [-80.8258872, 43.5576455], [-80.829987, 43.552408], [-80.8380957, 43.5417383], [-80.8417963, 43.536578], [-80.8420261, 43.5362645], [-80.8432412, 43.5346589], [-80.8439907, 43.5336372], [-80.8445451, 43.5328618], [-80.8460697, 43.5307719], [-80.8537199, 43.519873], [-80.8553794, 43.5175205], [-80.8559605, 43.5166839], [-80.861392, 43.5089303], [-80.8690216, 43.4980466]]]}}]}